ORBCOMM FM115           
1 41186U 15081H   24161.80011194  .00001639  00000+0  36752-3 0  9997
2 41186  47.0001   8.4073 0000871 203.3561 156.7286 14.60788850453297
ORBCOMM FM108           
1 41187U 15081J   24161.72631784  .00002333  00000+0  55518-3 0  9995
2 41187  47.0048  64.0092 0002116  27.9543 332.1455 14.56630234452465
ORBCOMM FM117           
1 41188U 15081K   24161.76129659  .00002336  00000+0  55561-3 0  9994
2 41188  47.0009  62.7337 0002789  44.6987 315.4122 14.56661643452513
ORBCOMM FM116           
1 41189U 15081L   24161.68134408  .00000767  00000+0  20758-3 0  9990
2 41189  47.0004 152.9260 0001201 156.9228 203.1711 14.56637028451313
